[{"OBJECT_NAME":"STARLINK-4013","OBJECT_ID":"2022-052G","EPOCH":"2026-03-09T20:30:30.121056","MEAN_MOTION":15.08847109,"ECCENTRICITY":0.00011922,"INCLINATION":53.2159,"RA_OF_ASC_NODE":278.3851,"ARG_OF_PERICENTER":87.7499,"MEAN_ANOMALY":272.3629,"EPHEMERIS_TYPE":0,"CLASSIFICATION_TYPE":"U","NORAD_CAT_ID":52604,"ELEMENT_SET_NO":999,"REV_AT_EPOCH":21088,"BSTAR":8.4037137e-5,"MEAN_MOTION_DOT":1.05e-5,"MEAN_MOTION_DDOT":0},{"OBJECT_NAME":"NEONSAT-1A","OBJECT_ID":"2026-019A","EPOCH":"2026-03-09T21:53:31.879392","MEAN_MOTION":15.0780294,"ECCENTRICITY":0.00137261,"INCLINATION":97.411,"RA_OF_ASC_NODE":192.4819,"ARG_OF_PERICENTER":167.4713,"MEAN_ANOMALY":192.686,"EPHEMERIS_TYPE":0,"CLASSIFICATION_TYPE":"U","NORAD_CAT_ID":67614,"ELEMENT_SET_NO":999,"REV_AT_EPOCH":585,"BSTAR":0.00027109929,"MEAN_MOTION_DOT":4.096e-5,"MEAN_MOTION_DDOT":0}]
